{
  "type": "FeatureCollection",
  "features": [
    {
      "type": "Feature",
      "properties": {
        "norad_id": 66907,
        "name": "1998-067XT",
        "group": "stations",
        "lat": 50.704857207843865,
        "lon": -80.86954659882737,
        "alt_km": 408.39924701876043,
        "timestamp": "2025-12-06T05:40:08.031274+00:00",
        "meta_object_name": "1998-067XT",
        "meta_object_id": "1998-067XT",
        "meta_epoch": "2025-12-04T14:33:58.780512",
        "meta_mean_motion": 15.5013594,
        "meta_eccentricity": 0.00051159,
        "meta_inclination": 51.6278,
        "meta_ra_of_asc_node": 182.735,
        "meta_arg_of_pericenter": 181.696,
        "meta_mean_anomaly": 178.4012,
        "meta_ephemeris_type": 0,
        "meta_classification_type": "U",
        "meta_norad_cat_id": 66907,
        "meta_element_set_no": 999,
        "meta_rev_at_epoch": 35,
        "meta_bstar": 0.0016214223,
        "meta_mean_motion_dot": 0.00093671,
        "meta_mean_motion_ddot": 0,
        "tle_line1": "1 66907U 98067XT  25338.60693033  .00093671  00000+0  16214-2 0  9990",
        "tle_line2": "2 66907  51.6278 182.7350 0005115 181.6960 178.4012 15.50135940   352"
      },
      "geometry": {
        "type": "Point",
        "coordinates": [
          -80.86954659882737,
          50.704857207843865
        ]
      }
    },
    {
      "type": "Feature",
      "properties": {
        "norad_id": 66908,
        "name": "1998-067XU",
        "group": "stations",
        "lat": 50.583696152890106,
        "lon": -79.93878150882692,
        "alt_km": 408.3157068842329,
        "timestamp": "2025-12-06T05:40:08.031284+00:00",
        "meta_object_name": "1998-067XU",
        "meta_object_id": "1998-067XU",
        "meta_epoch": "2025-12-04T23:50:53.483712",
        "meta_mean_motion": 15.50281808,
        "meta_eccentricity": 0.00055383,
        "meta_inclination": 51.6288,
        "meta_ra_of_asc_node": 180.8149,
        "meta_arg_of_pericenter": 185.3725,
        "meta_mean_anomaly": 174.7205,
        "meta_ephemeris_type": 0,
        "meta_classification_type": "U",
        "meta_norad_cat_id": 66908,
        "meta_element_set_no": 999,
        "meta_rev_at_epoch": 41,
        "meta_bstar": 0.0015643981,
        "meta_mean_motion_dot": 0.00090804,
        "meta_mean_motion_ddot": 0,
        "tle_line1": "1 66908U 98067XU  25338.99367458  .00090804  00000+0  15644-2 0  9993",
        "tle_line2": "2 66908  51.6288 180.8149 0005538 185.3725 174.7205 15.50281808   413"
      },
      "geometry": {
        "type": "Point",
        "coordinates": [
          -79.93878150882692,
          50.583696152890106
        ]
      }
    },
    {
      "type": "Feature",
      "properties": {
        "norad_id": 66909,
        "name": "1998-067XV",
        "group": "stations",
        "lat": 50.58207186108039,
        "lon": -79.92527942178934,
        "alt_km": 408.3681973960229,
        "timestamp": "2025-12-06T05:40:08.031294+00:00",
        "meta_object_name": "1998-067XV",
        "meta_object_id": "1998-067XV",
        "meta_epoch": "2025-12-04T23:50:52.274976",
        "meta_mean_motion": 15.50264508,
        "meta_eccentricity": 0.0005497,
        "meta_inclination": 51.629,
        "meta_ra_of_asc_node": 180.8148,
        "meta_arg_of_pericenter": 185.5625,
        "meta_mean_anomaly": 174.5303,
        "meta_ephemeris_type": 0,
        "meta_classification_type": "U",
        "meta_norad_cat_id": 66909,
        "meta_element_set_no": 999,
        "meta_rev_at_epoch": 41,
        "meta_bstar": 0.0015898,
        "meta_mean_motion_dot": 0.00092243,
        "meta_mean_motion_ddot": 0,
        "tle_line1": "1 66909U 98067XV  25338.99366059  .00092243  00000+0  15898-2 0  9990",
        "tle_line2": "2 66909  51.6290 180.8148 0005497 185.5625 174.5303 15.50264508   416"
      },
      "geometry": {
        "type": "Point",
        "coordinates": [
          -79.92527942178934,
          50.58207186108039
        ]
      }
    },
    {
      "type": "Feature",
      "properties": {
        "norad_id": 66910,
        "name": "1998-067XW",
        "group": "stations",
        "lat": 49.61188299590936,
        "lon": -74.00851016419995,
        "alt_km": 406.45265539352476,
        "timestamp": "2025-12-06T05:40:08.031304+00:00",
        "meta_object_name": "1998-067XW",
        "meta_object_id": "1998-067XW",
        "meta_epoch": "2025-12-05T01:22:59.154240",
        "meta_mean_motion": 15.50553772,
        "meta_eccentricity": 0.0006416,
        "meta_inclination": 51.6287,
        "meta_ra_of_asc_node": 180.4926,
        "meta_arg_of_pericenter": 172.5367,
        "meta_mean_anomaly": 187.5719,
        "meta_ephemeris_type": 0,
        "meta_classification_type": "U",
        "meta_norad_cat_id": 66910,
        "meta_element_set_no": 999,
        "meta_rev_at_epoch": 42,
        "meta_bstar": 0.0014713,
        "meta_mean_motion_dot": 0.00086166,
        "meta_mean_motion_ddot": 0,
        "tle_line1": "1 66910U 98067XW  25339.05762910  .00086166  00000+0  14713-2 0  9998",
        "tle_line2": "2 66910  51.6287 180.4926 0006416 172.5367 187.5719 15.50553772   425"
      },
      "geometry": {
        "type": "Point",
        "coordinates": [
          -74.00851016419995,
          49.61188299590936
        ]
      }
    },
    {
      "type": "Feature",
      "properties": {
        "norad_id": 66911,
        "name": "1998-067XX",
        "group": "stations",
        "lat": 49.50561886737191,
        "lon": -73.46589734706744,
        "alt_km": 406.26379740566244,
        "timestamp": "2025-12-06T05:40:08.031314+00:00",
        "meta_object_name": "1998-067XX",
        "meta_object_id": "1998-067XX",
        "meta_epoch": "2025-12-05T01:22:57.118656",
        "meta_mean_motion": 15.50597834,
        "meta_eccentricity": 0.0006353,
        "meta_inclination": 51.6287,
        "meta_ra_of_asc_node": 180.4927,
        "meta_arg_of_pericenter": 172.5612,
        "meta_mean_anomaly": 187.5473,
        "meta_ephemeris_type": 0,
        "meta_classification_type": "U",
        "meta_norad_cat_id": 66911,
        "meta_element_set_no": 999,
        "meta_rev_at_epoch": 41,
        "meta_bstar": 0.001631828,
        "meta_mean_motion_dot": 0.00095888,
        "meta_mean_motion_ddot": 0,
        "tle_line1": "1 66911U 98067XX  25339.05760554  .00095888  00000+0  16318-2 0  9995",
        "tle_line2": "2 66911  51.6287 180.4927 0006353 172.5612 187.5473 15.50597834   413"
      },
      "geometry": {
        "type": "Point",
        "coordinates": [
          -73.46589734706744,
          49.50561886737191
        ]
      }
    },
    {
      "type": "Feature",
      "properties": {
        "norad_id": 66912,
        "name": "1998-067XY",
        "group": "stations",
        "lat": 50.8523707982189,
        "lon": -82.08678384898147,
        "alt_km": 408.85158041895284,
        "timestamp": "2025-12-06T05:40:08.031326+00:00",
        "meta_object_name": "1998-067XY",
        "meta_object_id": "1998-067XY",
        "meta_epoch": "2025-12-04T20:45:22.504320",
        "meta_mean_motion": 15.50112041,
        "meta_eccentricity": 0.00053164,
        "meta_inclination": 51.6281,
        "meta_ra_of_asc_node": 181.4549,
        "meta_arg_of_pericenter": 183.1842,
        "meta_mean_anomaly": 176.9114,
        "meta_ephemeris_type": 0,
        "meta_classification_type": "U",
        "meta_norad_cat_id": 66912,
        "meta_element_set_no": 999,
        "meta_rev_at_epoch": 38,
        "meta_bstar": 0.0012051689,
        "meta_mean_motion_dot": 0.00069233,
        "meta_mean_motion_ddot": 0,
        "tle_line1": "1 66912U 98067XY  25338.86484380  .00069233  00000+0  12052-2 0  9990",
        "tle_line2": "2 66912  51.6281 181.4549 0005316 183.1842 176.9114 15.50112041   383"
      },
      "geometry": {
        "type": "Point",
        "coordinates": [
          -82.08678384898147,
          50.8523707982189
        ]
      }
    }
  ]
}